OBJECT_NAME,OBJECT_ID,EPOCH,MEAN_MOTION,ECCENTRICITY,INCLINATION,RA_OF_ASC_NODE,ARG_OF_PERICENTER,MEAN_ANOMALY,EPHEMERIS_TYPE,CLASSIFICATION_TYPE,NORAD_CAT_ID,ELEMENT_SET_NO,REV_AT_EPOCH,BSTAR,MEAN_MOTION_DOT,MEAN_MOTION_DDOT
GEOSCAN 3 (RS92S3),2025-155T,2026-06-08T18:50:21.941088,15.35117017,.0005459,97.4533,129.5657,188.0383,172.0774,0,U,64893,999,7956,.53165E-3,.18067E-3,0
INNOSAT 3 (RS92S0),2025-155U,2026-06-08T19:41:00.233376,15.43239555,.000497,97.4484,131.1194,172.9676,187.1642,0,U,64894,999,7967,.79256E-3,.35249E-3,0
KNACKSAT-2,1998-067XZ,2026-06-08T18:20:39.945408,15.59209268,.001022,51.6310,336.8215,178.4517,181.6510,0,U,67683,999,1896,.61524E-3,.49104E-3,0
