GEOSCAN 3 (RS92S3)      
1 64893U 25155T   26159.78497617  .00018067  00000+0  53165-3 0  9994
2 64893  97.4533 129.5657 0005459 188.0383 172.0774 15.35117017 79568
INNOSAT 3 (RS92S0)      
1 64894U 25155U   26159.82014159  .00035249  00000+0  79256-3 0  9996
2 64894  97.4484 131.1194 0004970 172.9676 187.1642 15.43239555 79677
KNACKSAT-2              
1 67683U 98067XZ  26159.76435122  .00049104  00000+0  61524-3 0  9991
2 67683  51.6310 336.8215 0010220 178.4517 181.6510 15.59209268 18967
